start=new Date('2022-07-16T00:00:00.000Z').valueOf();
sats=[{"SEMIMAJOR_AXIS":"6891.301","EPOCH":"2022-07-15T22:00:00.999936","OBJECT_TYPE":"PAYLOAD","PERIAPSIS":"512.139","DECAY_DATE":null,"INCLINATION":"53.2174","FILE":"3514839","PERIOD":"94.888","ARG_OF_PERICENTER":"56.2405","ELEMENT_SET_NO":"999","SITE":"AFETR","MEAN_MOTION_DOT":"-0.01079297","OBJECT_ID":"2022-049P","MEAN_MOTION_DDOT":"0.0000000000000","TIME_SYSTEM":"UTC","REV_AT_EPOCH":"130","LAUNCH_DATE":"2022-05-06","CLASSIFICATION_TYPE":"U","MEAN_MOTION":"15.17577788","REF_FRAME":"TEME","TLE_LINE1":"1 52464U 22049P   22196.91667824 -.01079297  00000-0 -57300-1 0  9994","EPHEMERIS_TYPE":"0","MEAN_ANOMALY":"213.8957","RCS_SIZE":"LARGE","TLE_LINE2":"2 52464  53.2174 282.3184 0001490  56.2405 213.8957 15.17577788  1304","OBJECT_NAME":"STARLINK-3904","GP_ID":"208206138","RA_OF_ASC_NODE":"282.3184","APOAPSIS":"514.192","COUNTRY_CODE":"US","MEAN_ELEMENT_THEORY":"SGP4","CENTER_NAME":"EARTH","ECCENTRICITY":"0.00014900","BSTAR":"-0.05730000000000","NORAD_CAT_ID":"52464"},{"INCLINATION":"53.2173","FILE":"3514839","DECAY_DATE":null,"OBJECT_TYPE":"PAYLOAD","PERIAPSIS":"373.049","EPOCH":"2022-07-15T22:00:00.999936","SEMIMAJOR_AXIS":"6751.978","LAUNCH_DATE":"2022-05-06","REV_AT_EPOCH":"130","TIME_SYSTEM":"UTC","MEAN_MOTION_DDOT":"0.0000000000000","OBJECT_ID":"2022-049Q","MEAN_MOTION_DOT":"-0.01053517","SITE":"AFETR","ELEMENT_SET_NO":"999","ARG_OF_PERICENTER":"59.2791","PERIOD":"92.025","TLE_LINE2":"2 52465  53.2173 277.4444 0001175  59.2791 239.1690 15.64790776  1300","RCS_SIZE":"LARGE","MEAN_ANOMALY":"239.1690","EPHEMERIS_TYPE":"0","TLE_LINE1":"1 52465U 22049Q   22196.91667824 -.01053517  00000-0 -11838-1 0  9998","REF_FRAME":"TEME","MEAN_MOTION":"15.64790776","CLASSIFICATION_TYPE":"U","NORAD_CAT_ID":"52465","BSTAR":"-0.01183800000000","CENTER_NAME":"EARTH","ECCENTRICITY":"0.00011750","COUNTRY_CODE":"US","MEAN_ELEMENT_THEORY":"SGP4","APOAPSIS":"374.636","RA_OF_ASC_NODE":"277.4444","OBJECT_NAME":"STARLINK-3863","GP_ID":"208205461"},{"RCS_SIZE":"LARGE","TLE_LINE2":"2 52466  53.2173 282.3313 0001375  56.8399 260.4616 15.18462679  1302","TLE_LINE1":"1 52466U 22049R   22196.91667824 -.01079899  00000-0 -55885-1 0  9990","EPHEMERIS_TYPE":"0","MEAN_ANOMALY":"260.4616","CLASSIFICATION_TYPE":"U","MEAN_MOTION":"15.18462679","REF_FRAME":"TEME","BSTAR":"-0.05588500000000","NORAD_CAT_ID":"52466","APOAPSIS":"511.435","COUNTRY_CODE":"US","MEAN_ELEMENT_THEORY":"SGP4","ECCENTRICITY":"0.00013750","CENTER_NAME":"EARTH","GP_ID":"208205574","OBJECT_NAME":"STARLINK-3840","RA_OF_ASC_NODE":"282.3313","INCLINATION":"53.2173","FILE":"3514839","OBJECT_TYPE":"PAYLOAD","PERIAPSIS":"509.541","DECAY_DATE":null,"SEMIMAJOR_AXIS":"6888.623","EPOCH":"2022-07-15T22:00:00.999936","REV_AT_EPOCH":"130","LAUNCH_DATE":"2022-05-06","MEAN_MOTION_DOT":"-0.01079899","OBJECT_ID":"2022-049R","MEAN_MOTION_DDOT":"0.0000000000000","TIME_SYSTEM":"UTC","PERIOD":"94.833","ARG_OF_PERICENTER":"56.8399","ELEMENT_SET_NO":"999","SITE":"AFETR"},{"CLASSIFICATION_TYPE":"U","REF_FRAME":"TEME","MEAN_MOTION":"15.18167814","TLE_LINE1":"1 52467U 22049S   22196.91667824 -.01079862  00000-0 -56363-1 0  9993","EPHEMERIS_TYPE":"0","MEAN_ANOMALY":"242.3874","RCS_SIZE":"LARGE","TLE_LINE2":"2 52467  53.2173 282.3271 0001375  59.3297 242.3874 15.18167814  1309","OBJECT_NAME":"STARLINK-3873","GP_ID":"208205348","RA_OF_ASC_NODE":"282.3271","COUNTRY_CODE":"US","MEAN_ELEMENT_THEORY":"SGP4","APOAPSIS":"512.327","CENTER_NAME":"EARTH","ECCENTRICITY":"0.00013750","BSTAR":"-0.05636300000000","NORAD_CAT_ID":"52467","EPOCH":"2022-07-15T22:00:00.999936","SEMIMAJOR_AXIS":"6889.515","OBJECT_TYPE":"PAYLOAD","PERIAPSIS":"510.433","DECAY_DATE":null,"FILE":"3514839","INCLINATION":"53.2173","PERIOD":"94.851","SITE":"AFETR","ELEMENT_SET_NO":"999","ARG_OF_PERICENTER":"59.3297","OBJECT_ID":"2022-049S","MEAN_MOTION_DOT":"-0.01079862","TIME_SYSTEM":"UTC","MEAN_MOTION_DDOT":"0.0000000000000","LAUNCH_DATE":"2022-05-06","REV_AT_EPOCH":"130"},{"DECAY_DATE":null,"PERIAPSIS":"506.790","OBJECT_TYPE":"PAYLOAD","INCLINATION":"53.2174","FILE":"3514839","SEMIMAJOR_AXIS":"6885.949","EPOCH":"2022-07-15T22:00:00.999936","MEAN_MOTION_DDOT":"0.0000000000000","TIME_SYSTEM":"UTC","MEAN_MOTION_DOT":"-0.01066252","OBJECT_ID":"2022-049T","REV_AT_EPOCH":"130","LAUNCH_DATE":"2022-05-06","ELEMENT_SET_NO":"999","ARG_OF_PERICENTER":"45.3720","SITE":"AFETR","PERIOD":"94.778","TLE_LINE2":"2 52468  53.2174 282.3435 0001488  45.3720 317.8584 15.19347226  1308","RCS_SIZE":"LARGE","MEAN_MOTION":"15.19347226","REF_FRAME":"TEME","CLASSIFICATION_TYPE":"U","MEAN_ANOMALY":"317.8584","TLE_LINE1":"1 52468U 22049T   22196.91667824 -.01066252  00000-0 -54457-1 0  9995","EPHEMERIS_TYPE":"0","NORAD_CAT_ID":"52468","BSTAR":"-0.05445700000000","RA_OF_ASC_NODE":"282.3435","GP_ID":"208206056","OBJECT_NAME":"STARLINK-3864","ECCENTRICITY":"0.00014880","CENTER_NAME":"EARTH","APOAPSIS":"508.839","COUNTRY_CODE":"US","MEAN_ELEMENT_THEORY":"SGP4"},{"NORAD_CAT_ID":"52469","BSTAR":"-0.05542200000000","CENTER_NAME":"EARTH","ECCENTRICITY":"0.00016630","COUNTRY_CODE":"US","MEAN_ELEMENT_THEORY":"SGP4","APOAPSIS":"510.741","RA_OF_ASC_NODE":"282.3355","OBJECT_NAME":"STARLINK-3828","GP_ID":"208205830","TLE_LINE2":"2 52469  53.2174 282.3355 0001663  38.8729 293.8756 15.18757694  1308","RCS_SIZE":"LARGE","MEAN_ANOMALY":"293.8756","EPHEMERIS_TYPE":"0","TLE_LINE1":"1 52469U 22049R   22196.91667824 -.01080201  00000-0 -55422-1 0  9999","REF_FRAME":"TEME","MEAN_MOTION":"15.18757694","CLASSIFICATION_TYPE":"U","LAUNCH_DATE":"2022-05-06","REV_AT_EPOCH":"130","TIME_SYSTEM":"UTC","MEAN_MOTION_DDOT":"0.0000000000000","OBJECT_ID":"2022-049U","MEAN_MOTION_DOT":"-0.01080201","SITE":"AFETR","ELEMENT_SET_NO":"999","ARG_OF_PERICENTER":"38.8729","PERIOD":"94.814","INCLINATION":"53.2174","FILE":"3514839","DECAY_DATE":null,"PERIAPSIS":"508.451","OBJECT_TYPE":"PAYLOAD","EPOCH":"2022-07-15T22:00:00.999936","SEMIMAJOR_AXIS":"6887.731"},{"REV_AT_EPOCH":"130","LAUNCH_DATE":"2022-05-06","MEAN_MOTION_DOT":"-0.01065777","OBJECT_ID":"2022-049V","MEAN_MOTION_DDOT":"0.0000000000000","TIME_SYSTEM":"UTC","PERIOD":"94.741","ARG_OF_PERICENTER":"47.2571","ELEMENT_SET_NO":"999","SITE":"AFETR","FILE":"3514839","INCLINATION":"53.2174","OBJECT_TYPE":"PAYLOAD","PERIAPSIS":"505.018","DECAY_DATE":null,"SEMIMAJOR_AXIS":"6884.169","EPOCH":"2022-07-15T22:00:00.999936","BSTAR":"-0.05350000000000","NORAD_CAT_ID":"52470","APOAPSIS":"507.049","MEAN_ELEMENT_THEORY":"SGP4","COUNTRY_CODE":"US","CENTER_NAME":"EARTH","ECCENTRICITY":"0.00014750","GP_ID":"208205943","OBJECT_NAME":"STARLINK-3859","RA_OF_ASC_NODE":"282.3511","RCS_SIZE":"LARGE","TLE_LINE2":"2 52470  53.2174 282.3511 0001475  47.2571 345.9060 15.19936750  1304","EPHEMERIS_TYPE":"0","TLE_LINE1":"1 52470U 22049V   22196.91667824 -.01065777  00000-0 -53500-1 0  9997","MEAN_ANOMALY":"345.9060","CLASSIFICATION_TYPE":"U","MEAN_MOTION":"15.19936750","REF_FRAME":"TEME"},{"ARG_OF_PERICENTER":"48.6547","ELEMENT_SET_NO":"999","SITE":"AFETR","PERIOD":"94.796","MEAN_MOTION_DDOT":"0.0000000000000","TIME_SYSTEM":"UTC","MEAN_MOTION_DOT":"-0.01079950","OBJECT_ID":"2022-049W","REV_AT_EPOCH":"130","LAUNCH_DATE":"2022-05-06","SEMIMAJOR_AXIS":"6886.840","EPOCH":"2022-07-15T22:00:00.999936","DECAY_DATE":null,"OBJECT_TYPE":"PAYLOAD","PERIAPSIS":"507.719","FILE":"3514839","INCLINATION":"53.2174","RA_OF_ASC_NODE":"282.3396","OBJECT_NAME":"STARLINK-3862","GP_ID":"208205718","CENTER_NAME":"EARTH","ECCENTRICITY":"0.00014310","APOAPSIS":"509.690","COUNTRY_CODE":"US","MEAN_ELEMENT_THEORY":"SGP4","NORAD_CAT_ID":"52471","BSTAR":"-0.05493700000000","MEAN_MOTION":"15.19052468","REF_FRAME":"TEME","CLASSIFICATION_TYPE":"U","MEAN_ANOMALY":"299.4035","TLE_LINE1":"1 52471U 22049W   22196.91667824 -.01079950  00000-0 -54937-1 0  9991","EPHEMERIS_TYPE":"0","TLE_LINE2":"2 52471  53.2174 282.3396 0001431  48.6547 299.4035 15.19052468  1306","RCS_SIZE":"LARGE"},{"TIME_SYSTEM":"UTC","MEAN_MOTION_DDOT":"0.0000000000000","OBJECT_ID":"2022-049X","MEAN_MOTION_DOT":"-0.01065129","LAUNCH_DATE":"2022-05-06","REV_AT_EPOCH":"130","SITE":"AFETR","ELEMENT_SET_NO":"999","ARG_OF_PERICENTER":"42.8263","PERIOD":"94.723","DECAY_DATE":null,"PERIAPSIS":"504.152","OBJECT_TYPE":"PAYLOAD","INCLINATION":"53.2175","FILE":"3514839","EPOCH":"2022-07-15T22:00:00.999936","SEMIMAJOR_AXIS":"6883.319","NORAD_CAT_ID":"52472","BSTAR":"-0.05302500000000","RA_OF_ASC_NODE":"282.3543","GP_ID":"208206139","OBJECT_NAME":"STARLINK-3881","CENTER_NAME":"EARTH","ECCENTRICITY":"0.00015000","MEAN_ELEMENT_THEORY":"SGP4","COUNTRY_CODE":"US","APOAPSIS":"506.217","TLE_LINE2":"2 52472  53.2175 282.3543 0001500  42.8263   5.3367 15.20218011  1302","RCS_SIZE":"LARGE","REF_FRAME":"TEME","MEAN_MOTION":"15.20218011","CLASSIFICATION_TYPE":"U","MEAN_ANOMALY":"5.3367","TLE_LINE1":"1 52472U 22049X   22196.91667824 -.01065129  00000-0 -53025-1 0  9992","EPHEMERIS_TYPE":"0"},{"CLASSIFICATION_TYPE":"U","REF_FRAME":"TEME","MEAN_MOTION":"15.19642009","TLE_LINE1":"1 52473U 22049Y   22196.91667824 -.01066036  00000-0 -53978-1 0  9998","EPHEMERIS_TYPE":"0","MEAN_ANOMALY":"332.5372","RCS_SIZE":"LARGE","TLE_LINE2":"2 52473  53.2174 282.3474 0001474  45.7282 332.5372 15.19642009  1305","GP_ID":"208205462","OBJECT_NAME":"STARLINK-3879","RA_OF_ASC_NODE":"282.3474","MEAN_ELEMENT_THEORY":"SGP4","COUNTRY_CODE":"US","APOAPSIS":"507.939","CENTER_NAME":"EARTH","ECCENTRICITY":"0.00014740","BSTAR":"-0.05397800000000","NORAD_CAT_ID":"52473","EPOCH":"2022-07-15T22:00:00.999936","SEMIMAJOR_AXIS":"6885.059","PERIAPSIS":"505.909","OBJECT_TYPE":"PAYLOAD","DECAY_DATE":null,"INCLINATION":"53.2174","FILE":"3514839","PERIOD":"94.759","SITE":"AFETR","ARG_OF_PERICENTER":"45.7282","ELEMENT_SET_NO":"999","OBJECT_ID":"2022-049Y","MEAN_MOTION_DOT":"-0.01066036","TIME_SYSTEM":"UTC","MEAN_MOTION_DDOT":"0.0000000000000","LAUNCH_DATE":"2022-05-06","REV_AT_EPOCH":"130"}];
